[
    {
        "CCSDS_OMM_VERS": "3.0",
        "COMMENT": "GENERATED VIA SPACE-TRACK.ORG API",
        "CREATION_DATE": "2025-02-28T19:05:01",
        "ORIGINATOR": "18 SPCS",
        "OBJECT_NAME": "NAVSTAR 83 (USA 440)",
        "OBJECT_ID": "2024-242A",
        "CENTER_NAME": "EARTH",
        "REF_FRAME": "TEME",
        "TIME_SYSTEM": "UTC",
        "MEAN_ELEMENT_THEORY": "SGP4",
        "EPOCH": "2025-02-28T08:35:12.616224",
        "MEAN_MOTION": "2.00556138",
        "ECCENTRICITY": "0.00046490",
        "INCLINATION": "54.9923",
        "RA_OF_ASC_NODE": "353.3668",
        "ARG_OF_PERICENTER": "316.4793",
        "MEAN_ANOMALY": "162.7363",
        "EPHEMERIS_TYPE": "0",
        "CLASSIFICATION_TYPE": "U",
        "NORAD_CAT_ID": "62339",
        "ELEMENT_SET_NO": "999",
        "REV_AT_EPOCH": "175",
        "BSTAR": "0.00000000000000",
        "MEAN_MOTION_DOT": "-0.00000079",
        "MEAN_MOTION_DDOT": "0.0000000000000",
        "SEMIMAJOR_AXIS": "26561.007",
        "PERIOD": "718.003",
        "APOAPSIS": "20195.220",
        "PERIAPSIS": "20170.524",
        "OBJECT_TYPE": "PAYLOAD",
        "RCS_SIZE": "LARGE",
        "COUNTRY_CODE": "US",
        "LAUNCH_DATE": "2024-12-17",
        "SITE": "AFETR",
        "DECAY_DATE": null,
        "FILE": "4655208",
        "GP_ID": "281933861",
        "TLE_LINE0": "0 NAVSTAR 83 (USA 440)",
        "TLE_LINE1": "1 62339U 24242A   25059.35778491 -.00000079  00000-0  00000-0 0  9999",
        "TLE_LINE2": "2 62339  54.9923 353.3668 0004649 316.4793 162.7363  2.00556138  1758"
    }
]